SL-8 R/B                
1 15483U 85006B   26167.48068330  .00000179  00000+0  67911-4 0  9998
2 15483  74.0459  79.3642 0018868 326.5782 206.7370 14.37834779168224
SL-12 R/B(2)            
1 15772U 85042D   26167.60754999  .00000122  00000+0  76155-4 0  9994
2 15772  71.1079 238.7410 0036309 328.6223 134.1580 14.22005849128458
SL-14 R/B               
1 15945U 85069B   26167.63069010  .00000380  00000+0  40055-4 0  9997
2 15945  82.5270 291.8892 0017751 221.1029 138.8852 14.86515180187535
SL-16 R/B               
1 16182U 85097B   26167.56493532 -.00000155  00000+0 -53600-4 0  9996
2 16182  71.0033 292.3880 0005400 112.9818 325.8106 14.16610181101236
SL-14 R/B               
1 16496U 86006B   26167.51319989  .00000464  00000+0  46653-4 0  9994
2 16496  82.5261 166.7476 0074997 305.7495  53.6762 14.86945035163899
COSMOS 1743             
1 16719U 86034A   26167.50813125  .00038382  00000+0  36171-3 0  9996
2 16719  82.5278 329.4536 0003872 273.8264  86.2554 15.66887600195688
SL-14 R/B               
1 16792U 86046B   26167.54672449  .00000311  00000+0  33030-4 0  9999
2 16792  82.4815 346.7806 0021594 260.7429  99.1345 14.85670594141084
SL-14 R/B               
1 16882U 86055B   26167.60620382  .00000325  00000+0  34598-4 0  9990
2 16882  82.5204  33.6793 0019126   9.5862  50.6952 14.85722825134052
AJISAI (EGS)            
1 16908U 86061A   26167.58200443 -.00000122  00000+0 -17195-3 0  9995
2 16908  50.0065 149.2558 0011216 179.0435 289.3217 12.44516792480315
SL-14 R/B               
1 17567U 87024B   26167.61154965  .00000322  00000+0  33902-4 0  9993
2 17567  82.5280 359.7918 0016828 295.3301  64.6172 14.86212869102829
COSMOS 1833             
1 17589U 87027A   26167.61276908  .00000318  00000+0  19538-3 0  9995
2 17589  70.9178 118.0755 0022785  56.0562 304.2721 14.13049592 24293
SL-16 R/B               
1 17590U 87027B   26167.43969381 -.00000220  00000+0 -85514-4 0  9993
2 17590  71.0033  68.4039 0006503 313.0888  46.9691 14.17171882 29335
SL-14 R/B               
1 17912U 87038B   26167.59001658  .00000283  00000+0  29984-4 0  9990
2 17912  82.5009 203.6348 0018833 193.1818 166.8909 14.85444861 93912
COSMOS 1844             
1 17973U 87041A   26167.47069414 -.00000170  00000+0 -62751-4 0  9998
2 17973  70.8969 185.8186 0032930 236.6386 123.1583 14.14568010 17557
SL-14 R/B               
1 18153U 87055B   26167.34756735  .00000340  00000+0  36208-4 0  9994
2 18153  82.4996 256.0206 0021760  50.3152 309.9979 14.85710675 84586
COSMOS 1867             
1 18187U 87060A   26167.36475640 -.00000056  00000+0  16559-4 0  9994
2 18187  65.0116  30.3620 0016517 282.1743  77.7491 14.31515709 34061
SL-14 R/B               
1 18749U 88001B   26167.28215858  .00000352  00000+0  37830-4 0  9991
2 18749  82.5132 102.6250 0016436 272.8465  87.0870 14.85609044 56666
COSMOS 1933             
1 18958U 88020A   26167.51042089  .00003270  00000+0  15617-3 0  9994
2 18958  82.5119 153.1052 0003503 187.5041 172.6142 15.18708739 65220
SL-3 R/B                
1 19046U 88032B   26167.58516938  .00003297  00000+0  15156-3 0  9999
2 19046  97.5255 150.6264 0023781 247.2750 112.5971 15.20836472 67138
SL-16 R/B               
1 19120U 88039B   26167.55716131 -.00000019  00000+0  13573-4 0  9995
2 19120  71.0138 219.4904 0022291 194.1326 165.9179 14.19629469972418
COSMOS 1953             
1 19210U 88050A   26167.62632854  .00006209  00000+0  21245-3 0  9995
2 19210  82.5080  58.6003 0012107 128.1015 232.1320 15.29972496 52902
SL-8 R/B                
1 19257U 88053B   26167.52133888  .00000137  00000+0  52924-4 0  9994
2 19257  74.0480 290.2846 0019143  85.8644 347.7551 14.38967151990817
COSMOS 1975             
1 19573U 88093A   26167.56546181  .00005376  00000+0  18759-3 0  9994
2 19573  82.5186  18.3275 0011262 173.6827 186.4557 15.29319061 34515
SL-14 R/B               
1 19574U 88093B   26167.46440161  .00000372  00000+0  39826-4 0  9995
2 19574  82.5311 309.3233 0022087  72.6862 347.7891 14.85741394 15686
SL-16 R/B               
1 19650U 88102B   26167.58144263 -.00000192  00000+0 -72796-4 0  9993
2 19650  71.0000 303.4136 0015831 226.2428 133.7385 14.16164361940898
INTERCOSMOS 24          
1 20261U 89080A   26167.61940980  .00000786  00000+0  22251-3 0  9990
2 20261  82.6066  40.0145 1188373  63.2212 308.5439 12.59661178679259
SL-14 R/B               
1 20262U 89080C   26167.60232862  .00000233  00000+0  69662-4 0  9998
2 20262  82.5932 109.6834 1228772 318.7404  32.6841 12.50570357672510
DELTA 1 R/B             
1 20323U 89089B   26167.52955222  .00000249  00000+0  69962-4 0  9998
2 20323  97.0635 359.1930 0069198 169.0540 191.2184 14.50730983910062
ARIANE 40 R/B           
1 20443U 90005H   26167.00236817  .00000211  00000+0  80689-4 0  9994
2 20443  98.2960 224.6552 0008804 268.4640  91.5540 14.39926835906958
DELTA 2 R/B(1)          
1 20453U 90008B   26166.91772223  .00068207  00000+0  50863-3 0  9992
2 20453  35.5995 244.1514 0065185 102.3413 258.4633 15.68645393941502
