OBJECT_NAME,OBJECT_ID,EPOCH,MEAN_MOTION,ECCENTRICITY,INCLINATION,RA_OF_ASC_NODE,ARG_OF_PERICENTER,MEAN_ANOMALY,EPHEMERIS_TYPE,CLASSIFICATION_TYPE,NORAD_CAT_ID,ELEMENT_SET_NO,REV_AT_EPOCH,BSTAR,MEAN_MOTION_DOT,MEAN_MOTION_DDOT
SL-8 R/B,1985-006B,2026-06-16T11:32:11.037120,14.37834779,.00188688,74.0459,79.3642,326.5782,206.7370,0,U,15483,999,16822,.6791059E-4,.179E-5,0
SL-12 R/B(2),1985-042D,2026-06-16T14:34:52.319136,14.22005849,.00363095,71.1079,238.7410,328.6223,134.1580,0,U,15772,999,12845,.76154779E-4,.122E-5,0
SL-14 R/B,1985-069B,2026-06-16T15:08:11.624640,14.86515180,.0017751,82.5270,291.8892,221.1029,138.8852,0,U,15945,999,18753,.40055308E-4,.38E-5,0
SL-16 R/B,1985-097B,2026-06-16T13:33:30.411648,14.16610181,.00054003,71.0033,292.3880,112.9818,325.8106,0,U,16182,999,10123,-.53600464E-4,-.155E-5,0
SL-14 R/B,1986-006B,2026-06-16T12:19:00.470496,14.86945035,.00749971,82.5261,166.7476,305.7495,53.6762,0,U,16496,999,16389,.46652658E-4,.464E-5,0
COSMOS 1743,1986-034A,2026-06-16T12:11:42.540000,15.66887600,.00038725,82.5278,329.4536,273.8264,86.2554,0,U,16719,999,19568,.36170902E-3,.38382E-3,0
SL-14 R/B,1986-046B,2026-06-16T13:07:16.995936,14.85670594,.00215945,82.4815,346.7806,260.7429,99.1345,0,U,16792,999,14108,.33029564E-4,.311E-5,0
SL-14 R/B,1986-055B,2026-06-16T14:32:56.010048,14.85722825,.00191265,82.5204,33.6793,9.5862,50.6952,0,U,16882,999,13405,.34597679E-4,.325E-5,0
AJISAI (EGS),1986-061A,2026-06-16T13:58:05.182752,12.44516792,.00112168,50.0065,149.2558,179.0435,289.3217,0,U,16908,999,48031,-.17195087E-3,-.122E-5,0
SL-14 R/B,1987-024B,2026-06-16T14:40:37.889760,14.86212869,.0016828,82.5280,359.7918,295.3301,64.6172,0,U,17567,999,10282,.33901607E-4,.322E-5,0
COSMOS 1833,1987-027A,2026-06-16T14:42:23.248512,14.13049592,.0022785,70.9178,118.0755,56.0562,304.2721,0,U,17589,999,2429,.19537709E-3,.318E-5,0
SL-16 R/B,1987-027B,2026-06-16T10:33:09.545184,14.17171882,.00065031,71.0033,68.4039,313.0888,46.9691,0,U,17590,999,2933,-.85513722E-4,-.22E-5,0
SL-14 R/B,1987-038B,2026-06-16T14:09:37.432512,14.85444861,.00188335,82.5009,203.6348,193.1818,166.8909,0,U,17912,999,9391,.29983721E-4,.283E-5,0
COSMOS 1844,1987-041A,2026-06-16T11:17:47.973696,14.14568010,.00329308,70.8969,185.8186,236.6386,123.1583,0,U,17973,999,1755,-.6275076E-4,-.17E-5,0
SL-14 R/B,1987-055B,2026-06-16T08:20:29.819040,14.85710675,.00217607,82.4996,256.0206,50.3152,309.9979,0,U,18153,999,8458,.36207528E-4,.34E-5,0
COSMOS 1867,1987-060A,2026-06-16T08:45:14.952960,14.31515709,.00165174,65.0116,30.3620,282.1743,77.7491,0,U,18187,999,3406,.16558524E-4,-.56E-6,0
SL-14 R/B,1988-001B,2026-06-16T06:46:18.501312,14.85609044,.0016436,82.5132,102.6250,272.8465,87.0870,0,U,18749,999,5666,.3783E-4,.352E-5,0
COSMOS 1933,1988-020A,2026-06-16T12:15:00.364896,15.18708739,.00035033,82.5119,153.1052,187.5041,172.6142,0,U,18958,999,6522,.15617398E-3,.327E-4,0
SL-3 R/B,1988-032B,2026-06-16T14:02:38.634432,15.20836472,.00237818,97.5255,150.6264,247.2750,112.5971,0,U,19046,999,6713,.1515619E-3,.3297E-4,0
SL-16 R/B,1988-039B,2026-06-16T13:22:18.737184,14.19629469,.00222913,71.0138,219.4904,194.1326,165.9179,0,U,19120,999,97241,.13573418E-4,-.19E-6,0
COSMOS 1953,1988-050A,2026-06-16T15:01:54.785856,15.29972496,.00121078,82.5080,58.6003,128.1015,232.1320,0,U,19210,999,5290,.21245237E-3,.6209E-4,0
SL-8 R/B,1988-053B,2026-06-16T12:30:43.679232,14.38967151,.00191436,74.0480,290.2846,85.8644,347.7551,0,U,19257,999,99081,.52923517E-4,.137E-5,0
COSMOS 1975,1988-093A,2026-06-16T13:34:15.900384,15.29319061,.00112623,82.5186,18.3275,173.6827,186.4557,0,U,19573,999,3451,.18758542E-3,.5376E-4,0
SL-14 R/B,1988-093B,2026-06-16T11:08:44.299104,14.85741394,.00220877,82.5311,309.3233,72.6862,347.7891,0,U,19574,999,1568,.39826099E-4,.372E-5,0
SL-16 R/B,1988-102B,2026-06-16T13:57:16.643232,14.16164361,.00158313,71.0000,303.4136,226.2428,133.7385,0,U,19650,999,94089,-.72795937E-4,-.192E-5,0
INTERCOSMOS 24,1989-080A,2026-06-16T14:51:57.006720,12.59661178,.11883738,82.6066,40.0145,63.2212,308.5439,0,U,20261,999,67925,.22251442E-3,.786E-5,0
SL-14 R/B,1989-080C,2026-06-16T14:27:21.192768,12.50570357,.12287722,82.5932,109.6834,318.7404,32.6841,0,U,20262,999,67251,.69662283E-4,.233E-5,0
DELTA 1 R/B,1989-089B,2026-06-16T12:42:33.311808,14.50730983,.00691989,97.0635,359.1930,169.0540,191.2184,0,U,20323,999,91006,.69961863E-4,.249E-5,0
ARIANE 40 R/B,1990-005H,2026-06-16T00:03:24.609888,14.39926835,.0008804,98.2960,224.6552,268.4640,91.5540,0,U,20443,999,90695,.8068861E-4,.211E-5,0
DELTA 2 R/B(1),1990-008B,2026-06-15T22:01:31.200672,15.68645393,.0065185,35.5995,244.1514,102.3413,258.4633,0,U,20453,999,94150,.50863E-3,.68207E-3,0
